{
  "norad_id": 68453,
  "name": "TRANSPORTER-16 OBJECT AP",
  "history": [
    {
      "epoch": "2026-04-14T03:16:53.521248Z",
      "apogee_km": 512.7215512177372,
      "perigee_km": 511.5295357977093,
      "latitude_deg": -4.073084959637876e-05,
      "longitude_deg": 172.02541884553176,
      "height_km": 515.8065780596645,
      "semi_major_axis_km": 6890.2625435077225,
      "eccentricity": 8.65e-05,
      "inclination_deg": 97.4501,
      "raan_deg": 63.5659,
      "arg_perigee_deg": 176.2668,
      "mean_anomaly_deg": 183.8572,
      "mean_motion_rev_day": 15.1792078
    }
  ]
}