{"fetched_at":"2026-04-16T06:04:01Z","count":5425,"tles":[{"name":"TRANSPORTER-16 OBJECT AP","line1":"1 68453U 26067AP  26104.13673057  .00004296  00000+0  21511-3 0  9995","line2":"2 68453  97.4501  63.5659 0000865 176.2668 183.8572 15.17920780  2223","category":"Other"}]}